{
  "links" : {
    "next" : "https://api.nasa.gov/neo/rest/v1/feed?start_date=2002-02-16&end_date=2002-02-16&detailed=true&api_key=t0TVs3DtDT2H8Oy2Zy8m2eVrNsAVKAexjcZXUckd",
    "prev" : "https://api.nasa.gov/neo/rest/v1/feed?start_date=2002-02-14&end_date=2002-02-14&detailed=true&api_key=t0TVs3DtDT2H8Oy2Zy8m2eVrNsAVKAexjcZXUckd",
    "self" : "https://api.nasa.gov/neo/rest/v1/feed?start_date=2002-02-15&end_date=2002-02-15&detailed=true&api_key=t0TVs3DtDT2H8Oy2Zy8m2eVrNsAVKAexjcZXUckd"
  },
  "element_count" : 2,
  "near_earth_objects" : {
    "2002-02-15" : [ {
      "links" : {
        "self" : "https://api.nasa.gov/neo/rest/v1/neo/3485263?api_key=t0TVs3DtDT2H8Oy2Zy8m2eVrNsAVKAexjcZXUckd"
      },
      "neo_reference_id" : "3485263",
      "name" : "(2010 AJ30)",
      "nasa_jpl_url" : "http://ssd.jpl.nasa.gov/sbdb.cgi?sstr=3485263",
      "absolute_magnitude_h" : 22.7,
      "estimated_diameter" : {
        "kilometers" : {
          "estimated_diameter_min" : 0.0766575574,
          "estimated_diameter_max" : 0.1714115092
        },
        "meters" : {
          "estimated_diameter_min" : 76.6575573531,
          "estimated_diameter_max" : 171.4115092306
        },
        "miles" : {
          "estimated_diameter_min" : 0.0476327831,
          "estimated_diameter_max" : 0.1065101409
        },
        "feet" : {
          "estimated_diameter_min" : 251.5011804664,
          "estimated_diameter_max" : 562.3737359442
        }
      },
      "is_potentially_hazardous_asteroid" : false,
      "close_approach_data" : [ {
        "close_approach_date" : "2002-02-15",
        "epoch_date_close_approach" : 1013760000000,
        "relative_velocity" : {
          "kilometers_per_second" : "10.0566346658",
          "kilometers_per_hour" : "36203.8847969808",
          "miles_per_hour" : "22495.6860839907"
        },
        "miss_distance" : {
          "astronomical" : "0.0906495604",
          "lunar" : "35.2626800537",
          "kilometers" : "13560981",
          "miles" : "8426403"
        },
        "orbiting_body" : "Earth"
      } ],
      "orbital_data" : {
        "orbit_id" : "19",
        "orbit_determination_date" : "2017-04-06 08:58:37",
        "orbit_uncertainty" : "6",
        "minimum_orbit_intersection" : ".0465334",
        "jupiter_tisserand_invariant" : "7.158",
        "epoch_osculation" : "2458000.5",
        "eccentricity" : ".3021297511273738",
        "semi_major_axis" : ".8114865177152246",
        "inclination" : "7.591957852125675",
        "ascending_node_longitude" : "303.5110212495503",
        "orbital_period" : "267.0056122249443",
        "perihelion_distance" : ".5663122980747046",
        "perihelion_argument" : "350.6679604881678",
        "aphelion_distance" : "1.056660737355745",
        "perihelion_time" : "2458016.457187093685",
        "mean_anomaly" : "338.4851437920829",
        "mean_motion" : "1.348286266345258",
        "equinox" : "J2000"
      }
    }, {
      "links" : {
        "self" : "https://api.nasa.gov/neo/rest/v1/neo/3743123?api_key=t0TVs3DtDT2H8Oy2Zy8m2eVrNsAVKAexjcZXUckd"
      },
      "neo_reference_id" : "3743123",
      "name" : "(2016 CA138)",
      "nasa_jpl_url" : "http://ssd.jpl.nasa.gov/sbdb.cgi?sstr=3743123",
      "absolute_magnitude_h" : 23.4,
      "estimated_diameter" : {
        "kilometers" : {
          "estimated_diameter_min" : 0.0555334912,
          "estimated_diameter_max" : 0.1241766613
        },
        "meters" : {
          "estimated_diameter_min" : 55.5334911581,
          "estimated_diameter_max" : 124.1766612574
        },
        "miles" : {
          "estimated_diameter_min" : 0.0345069009,
          "estimated_diameter_max" : 0.0771597762
        },
        "feet" : {
          "estimated_diameter_min" : 182.1964991311,
          "estimated_diameter_max" : 407.4037573197
        }
      },
      "is_potentially_hazardous_asteroid" : false,
      "close_approach_data" : [ {
        "close_approach_date" : "2002-02-15",
        "epoch_date_close_approach" : 1013760000000,
        "relative_velocity" : {
          "kilometers_per_second" : "19.1234295938",
          "kilometers_per_hour" : "68844.3465375669",
          "miles_per_hour" : "42777.199658301"
        },
        "miss_distance" : {
          "astronomical" : "0.4075191168",
          "lunar" : "158.5249328613",
          "kilometers" : "60963992",
          "miles" : "37881268"
        },
        "orbiting_body" : "Earth"
      } ],
      "orbital_data" : {
        "orbit_id" : "15",
        "orbit_determination_date" : "2017-09-03 06:18:06",
        "orbit_uncertainty" : "0",
        "minimum_orbit_intersection" : ".051852",
        "jupiter_tisserand_invariant" : "5.976",
        "epoch_osculation" : "2458000.5",
        "eccentricity" : ".04785421434227258",
        "semi_major_axis" : "1.000635310238575",
        "inclination" : "27.72270532641191",
        "ascending_node_longitude" : "328.9859009608685",
        "orbital_period" : "365.6050307755489",
        "perihelion_distance" : ".9527506936239722",
        "perihelion_argument" : "327.9732393908697",
        "aphelion_distance" : "1.048519926853179",
        "perihelion_time" : "2457947.679860924133",
        "mean_anomaly" : "52.0103621850488",
        "mean_motion" : ".9846691639782443",
        "equinox" : "J2000"
      }
    } ]
  }
}